{"type":"FeatureCollection","metadata":{"psgc_type":"province","psgc_version":"2023-10-24","namria_version":"2023-11-06","feature_count":82,"match_summary":{"exact":82,"huc_map":0,"fuzzy":0,"non_administrative":0,"unresolved":0}},"features":[{"type":"Feature","properties":{"ADM2_EN":"Agusan del Norte","ADM2_PCODE":"PH16002","ADM1_EN":"Region XIII (Caraga)","ADM1_PCODE":"PH16","ADM0_EN":"Philippines (the)","ADM0_PCODE":"PH","date":"2022-11-09","validOn":"2023-11-06","validTo":null,"Shape_Leng":3.67495452609,"Shape_Area":0.220064641101,"ADM2ALT1EN":null,"AREA_SQKM":2676.07552962,"psgc_id":"PH16002","psgc_code":"1600200000","psgc_name":"Agusan del Norte","psgc_status":"matched","match_confidence":1,"psgc_type":"province","match_method":"exact"},"geometry":{"type":"MultiPolygon","coordinates":[[[[125.55402464600002,9.467121203000033],[125.55363592200001,9.465883789000031],[125.55353952000007,9.467165205000072],[125.55402464600002,9.467121203000033]]],[[[125.74294281000005,9.386569977000022],[125.74492488300007,9.285805789000051],[125.76750946100003,9.163619995000033],[125.74908632900008,9.086086168000065],[125.73561859100005,9.048310280000067],[125.69587707500011,8.985059738000075],[125.70102308300011,8.952201815000024],[125.67788193400008,8.937550293000072],[125.66314386800002,8.937778982000054],[125.66202434800005,8.923479963000034],[125.63428216400007,8.889505975000077],[125.63876141100002,8.847520701000064],[125.6488293650001,8.84734656300003],[125.64828626400003,8.821016821000057],[125.67393507000008,8.732986266000069],[125.66666469100005,8.733072826000068],[125.66941123000004,8.701482917000021],[125.56788009700006,8.694252990000052],[125.51534802600008,8.698628262000057],[125.47463132100006,8.708495674000062],[125.47370484900011,8.727406363000057],[125.45698572900005,8.726691653000046],[125.45696542300004,8.740408046000027],[125.31529888400007,8.742335534000063],[125.29130413000007,8.733330907000038],[125.28176417000009,8.740742736000072],[125.23964481000007,8.719439959000056],[125.24109649700006,8.840640068000027],[125.26259864700012,8.842400689000044],[125.25342421900007,8.852864638000028],[125.24806053800012,8.888393441000062],[125.23253829400005,8.891520280000066],[125.2356102870001,8.90937374400005],[125.21726934600008,8.918522864000067],[125.21817104100012,8.935446283000033],[125.23020437700006,8.937236963000032],[125.22257525200007,8.942755357000067],[125.23312713400003,8.950770763000037],[125.22575598500009,8.95004629300007],[125.22416252700009,8.966983749000065],[125.23068479400001,8.970563096000035],[125.21778203200006,8.982029497000042],[125.2381393180001,8.987511528000027],[125.23081512700003,9.015114317000041],[125.21767746800003,9.030473781000069],[125.20790618,9.093872980000071],[125.21824652400005,9.089700978000053],[125.23721254000009,9.030769289000034],[125.28149342200004,8.991234533000068],[125.3314567750001,8.990513239000052],[125.3258540810001,8.97399451900003],[125.3324415730001,8.969484782000052],[125.33511596800008,8.987047520000033],[125.34283962900008,8.990573812000036],[125.42957376700008,8.975502093000046],[125.50205227300012,9.012555913000028],[125.5236220060001,9.01130258400002],[125.51151923500004,9.028005551000035],[125.53658912800006,9.07851931700003],[125.51970895700003,9.141765253000074],[125.5306473930001,9.193532829000048],[125.52312483500009,9.200207964000072],[125.52282598400006,9.217518565000034],[125.51216441100007,9.225227482000037],[125.51431429200011,9.237447730000042],[125.50462895500004,9.245332056000052],[125.50358496400008,9.301676764000035],[125.46120801500001,9.383990379000068],[125.4619430140001,9.414030629000024],[125.45036076800011,9.421235403000026],[125.45334763300002,9.439441353000063],[125.48712663900005,9.453258363000032],[125.52650237800003,9.325784223000028],[125.5300903750001,9.343007058000069],[125.52297897000005,9.349102630000061],[125.54589379100003,9.35889571100006],[125.56079040000009,9.390774314000055],[125.54893929900004,9.393254214000024],[125.5448021200001,9.40524513300005],[125.55752738600006,9.425928594000027],[125.55014838800003,9.436342868000054],[125.55367266100006,9.46576910300007],[125.70017242400002,9.429679871000076],[125.71832275400004,9.418250084000022],[125.74294281000005,9.386569977000022]]]]}},{"type":"Feature","properties":{"ADM2_EN":"Agusan del Sur","ADM2_PCODE":"PH16003","ADM1_EN":"Region XIII (Caraga)","ADM1_PCODE":"PH16","ADM0_EN":"Philippines (the)","ADM0_PCODE":"PH","date":"2022-11-09","validOn":"2023-11-06","validTo":null,"Shape_Leng":5.22263614057,"Shape_Area":0.693968208926,"ADM2ALT1EN":null,"AREA_SQKM":8452.32657813,"psgc_id":"PH16003","psgc_code":"1600300000","psgc_name":"Agusan del Sur","psgc_status":"matched","match_confidence":1,"psgc_type":"province","match_method":"exact"},"geometry":{"type":"Polygon","coordinates":[[[126.257053,8.027617],[126.20135028300001,7.986847302000058],[126.20320972000002,7.978471703000025],[126.18161426800009,7.987469022000028],[126.16555130600011,7.981293536000067],[126.14326147700001,7.994951053000023],[126.06850436600007,7.958980761000021],[126.03909698100006,7.930941297000061],[125.999896981,7.952441296000075],[125.98004201000003,7.998677944000065],[125.911491,7.999984],[125.9175223090001,7.964770265000027],[125.9008660820001,7.930862946000047],[125.87623866000001,7.936216733000037],[125.85149226600004,7.967149726000059],[125.80568764200007,7.970124052000074],[125.78558119600007,7.948708904000057],[125.77558746000011,7.951921175000052],[125.7522891100001,7.983229664000021],[125.75254004100009,7.998480444000052],[125.37939404500003,8.003230631000065],[125.37992309200001,8.042899480000074],[125.393454,8.043015],[125.405628,8.076177],[125.43645865000008,8.085088194000036],[125.44290188100001,8.096643192000045],[125.43148637400009,8.118818753000028],[125.41612494900005,8.122045387000071],[125.41913241200007,8.131316714000036],[125.41241883300006,8.132324269000037],[125.39422594700011,8.170441253000035],[125.36639525100009,8.186353749000034],[125.367014,8.214609],[125.34678330500003,8.232364682000025],[125.3398775820001,8.284365215000037],[125.33153926800003,8.29725187400004],[125.308692973,8.311562027000036],[125.27508000000012,8.354652],[125.27622922700004,8.411848115000055],[125.28727226700005,8.422475134000024],[125.279652,8.435055],[125.266307,8.438375],[125.24756096900012,8.478069553000068],[125.2494712460001,8.556958372000054],[125.26173252700005,8.587565607000045],[125.25537209600009,8.579610089000028],[125.2458427580001,8.581976305000069],[125.17110421600012,8.582282192000037],[125.16979575300002,8.583996126000045],[125.18123595100008,8.591771213000072],[125.18344688000002,8.614259017000052],[125.21895874200004,8.637161136000032],[125.23851595000008,8.66030526700007],[125.23964481000007,8.719439959000056],[125.2698440470001,8.737944730000038],[125.45696542300004,8.740408046000027],[125.45698572900005,8.726691653000046],[125.47370484900011,8.727406363000057],[125.47463132100006,8.708495674000062],[125.51534802600008,8.698628262000057],[125.56788009700006,8.694252990000052],[125.66941123000004,8.701482917000021],[125.66666469100005,8.733072826000068],[125.67393507000008,8.732986266000069],[125.64828626400003,8.821016821000057],[125.6488293650001,8.84734656300003],[125.63876141100002,8.847520701000064],[125.63428216400007,8.889505975000077],[125.66202434800005,8.923479963000034],[125.66314386800002,8.937778982000054],[125.67788193400008,8.937550293000072],[125.70102308300011,8.952201815000024],[125.69587707500011,8.985059738000075],[125.74514418800004,9.072183168000038],[125.76750946100003,9.163619995000033],[125.75605011000005,9.230010033000042],[125.77479362200006,9.223129173000075],[125.77549790800003,9.209048868000025],[125.84052430800011,9.139607128000023],[125.86615462700001,9.093480370000066],[125.88502861000006,9.04740326700005],[125.89875851600004,8.869284020000066],[125.9492966570001,8.81409807600005],[125.97028863500009,8.739795165000032],[126.03465087000006,8.633442209000066],[126.0002461360001,8.599765467000054],[126.0001168980001,8.571312676000048],[126.02744243000006,8.56862774900003],[126.03343986000004,8.539190849000022],[126.02193997800009,8.532173914000055],[126.01648076700008,8.499474956000029],[126.0550898780001,8.447828533000063],[126.0739043750001,8.444657716000052],[126.06389470500005,8.429067687000042],[126.08158939500004,8.406980075000035],[126.11381361000008,8.39063531000005],[126.12906638200002,8.36267047900003],[126.12482541400004,8.323033751000025],[126.19962461600005,8.288008542000057],[126.16505058500002,8.25959883400003],[126.18316727100012,8.244580477000056],[126.15496704700001,8.223461438000072],[126.16731886100001,8.203217556000027],[126.18754018100003,8.19057976800002],[126.18415583700005,8.182888171000059],[126.21229303700011,8.169986945000062],[126.23722187400006,8.131953570000064],[126.23662103900006,8.058979033000071],[126.2630471550001,8.059588624000071],[126.26338735500008,8.051850053000067],[126.2498,8.042888],[126.257053,8.027617]]]}},{"type":"Feature","properties":{"ADM2_EN":"Surigao del Norte","ADM2_PCODE":"PH16067","ADM1_EN":"Region XIII (Caraga)","ADM1_PCODE":"PH16","ADM0_EN":"Philippines (the)","ADM0_PCODE":"PH","date":"2022-11-09","validOn":"2023-11-06","validTo":null,"Shape_Leng":12.8489578447,"Shape_Area":0.162551615213,"ADM2ALT1EN":null,"AREA_SQKM":1973.16421968,"psgc_id":"PH16067","psgc_code":"1606700000","psgc_name":"Surigao del Norte","psgc_status":"matched","match_confidence":1,"psgc_type":"province","match_method":"exact"},"geometry":{"type":"MultiPolygon","coordinates":[[[[126.06177888900004,10.062321934000067],[126.07125078500007,10.054911425000057],[126.07005592400003,10.024458720000041],[126.08349703200008,10.010589191000065],[126.10051264100002,9.938953218000051],[126.11547632500003,9.918445161000022],[126.11114430900011,9.895388338000032],[126.12049718700007,9.876116887000023],[126.11199331300008,9.864876062000064],[126.09704140800011,9.863563469000042],[126.09127840800011,9.849110620000033],[126.1145973240001,9.850139643000034],[126.1215381070001,9.836632129000066],[126.14215560900004,9.845075990000055],[126.14204263400006,9.826410916000043],[126.15247956300004,9.814331766000066],[126.1472700700001,9.806051185000058],[126.16870416100005,9.81002654200006],[126.15773114900003,9.778744563000032],[126.13162106200002,9.771488548000036],[126.12634262400002,9.757305626000061],[126.113827979,9.759253300000069],[126.11311328500005,9.747588424000071],[126.04997211400007,9.75452486000006],[126.02702617700004,9.768231441000069],[126.02277861400012,9.759952290000058],[126.036475042,9.751112161000037],[126.0316041850001,9.744955063000077],[126.01479312800006,9.756779793000021],[125.99044543700006,9.801027867000073],[125.9730348060001,9.811142830000051],[125.97462070800009,9.82624794700007],[125.95973784500006,9.825348486000053],[125.96164788900012,9.832128220000072],[125.94896799500009,9.835468616000071],[125.95907237500012,9.855085880000047],[125.96405919500012,9.851081627000042],[125.9686066810001,9.850877239000056],[125.97553845900006,9.856259221000073],[125.97566847900009,9.863400806000072],[125.95948809400011,9.880729938000059],[125.97605229300007,9.903870287000075],[125.97329325700002,9.923093556000026],[125.9829443110001,9.937792724000076],[125.996371941,9.940646008000044],[126.02209788500011,9.976854238000044],[126.03763568300008,10.003156753000042],[126.02999587700003,10.007656375000067],[126.0366917660001,10.016577587000029],[126.03149293100012,10.01483733300006],[126.0361480150001,10.017660872000022],[126.02942873500001,10.027816402000042],[126.06177888900004,10.062321934000067]]],[[[125.91975383500005,9.873073042000044],[125.90682980100007,9.88016835700006],[125.90651960600007,9.890685198000028],[125.9116783290001,9.88421485300006],[125.91452698700004,9.883818598000062],[125.92476217900003,9.903483078000022],[125.93724486600001,9.90304117900007],[125.9381519000001,9.90506046400003],[125.92881563300011,9.904474274000052],[125.92849731900003,9.908234569000058],[125.94704264100005,9.918623065000077],[125.94730230200003,9.921262944000034],[125.94694552900012,9.921793386000047],[125.945995691,9.921356710000055],[125.94566467300001,9.921811561000027],[125.94642497900008,9.92570487300003],[125.95904714100004,9.927126428000065],[125.95977191200006,9.928860577000023],[125.95388401100001,9.931170707000035],[125.95269791300007,9.934459792000041],[125.96008910500007,9.931433440000035],[125.96655242500003,9.936637993000033],[125.96898202400007,9.94219593400004],[125.97502496400011,9.939575607000052],[125.9664858220001,9.957195928000033],[125.96916135300012,9.963760064000041],[125.97131926400004,9.950245444000075],[125.98157821900008,9.942689608000023],[125.97056596200002,9.925368725000055],[125.97256831300001,9.918312623000077],[125.95936582800005,9.908056257000055],[125.94301030600002,9.887987807000059],[125.93156970600012,9.884683292000034],[125.93219185900011,9.89364091300007],[125.93088135100004,9.892816847000063],[125.93139693400008,9.895534131000034],[125.92747806500006,9.896437608000042],[125.91975383500005,9.873073042000044]]],[[[125.95770263700001,9.951721192000036],[125.95452880900007,9.948913574000073],[125.95428466800001,9.949890137000068],[125.95770263700001,9.951721192000036]]],[[[125.98692559800008,9.942655170000023],[125.99096518200008,9.94825254500006],[125.98837390000006,9.942927439000073],[125.98692559800008,9.942655170000023]]],[[[125.96614783500002,9.938902616000064],[125.96720405100007,9.938998041000048],[125.96707021300006,9.938487406000036],[125.96614783500002,9.938902616000064]]],[[[125.96455818700008,9.938267240000073],[125.96523707300003,9.937144364000062],[125.96473891500011,9.937300428000071],[125.96490387100005,9.936808129000042],[125.9642833470001,9.936464970000031],[125.96455818700008,9.938267240000073]]],[[[125.96622425200007,9.937076025000067],[125.96602194200011,9.937187489000053],[125.9661693920001,9.937304012000027],[125.96622425200007,9.937076025000067]]],[[[125.96525262600005,9.936937268000065],[125.965561234,9.936786960000063],[125.965259478,9.93658262300005],[125.96525262600005,9.936937268000065]]],[[[125.96296249200009,9.936402791000035],[125.96402393400001,9.936315793000063],[125.9642351760001,9.935764886000072],[125.96296249200009,9.936402791000035]]],[[[125.95653225100011,9.929346586000065],[125.956891788,9.929619219000074],[125.95682645900001,9.92925861200007],[125.95653225100011,9.929346586000065]]],[[[125.93727555400005,9.914630814000077],[125.93247250400009,9.927061138000056],[125.94064524700002,9.92785845800006],[125.93727555400005,9.914630814000077]]],[[[125.501210076,9.926180186000067],[125.49214561600002,9.92433363400005],[125.49606498500009,9.92974878800004],[125.501210076,9.926180186000067]]],[[[125.95516216500005,9.929592555000056],[125.95534468400001,9.927645994000045],[125.95423150300007,9.928343711000025],[125.95516216500005,9.929592555000056]]],[[[125.81255658100008,9.925487407000048],[125.8053877100001,9.921290147000036],[125.81042341800003,9.929631948000065],[125.81255658100008,9.925487407000048]]],[[[125.89231500200003,9.924949567000056],[125.89193327900011,9.92505327200007],[125.89216296100005,9.925199630000066],[125.89231500200003,9.924949567000056]]],[[[125.89560726400009,9.922458512000048],[125.89205024000012,9.922245198000041],[125.89210574100002,9.923336753000058],[125.89560726400009,9.922458512000048]]],[[[125.53651996400004,9.864112801000033],[125.51056117400003,9.886213435000059],[125.50856732000011,9.911279230000048],[125.51415988500003,9.922328726000046],[125.5127287460001,9.913314882000066],[125.51872818900006,9.898629866000022],[125.55589649700005,9.864685338000072],[125.53651996400004,9.864112801000033]]],[[[125.94612002500003,9.920833737000066],[125.9460753940001,9.921214104000057],[125.94635093400007,9.92114529500003],[125.94612002500003,9.920833737000066]]],[[[125.94672492300003,9.920886826000071],[125.94713030300011,9.92076905500005],[125.94685464400004,9.920536564000031],[125.94672492300003,9.920886826000071]]],[[[125.94610841300005,9.920734645000039],[125.94625716500002,9.920654544000058],[125.9460707290001,9.920676035000042],[125.94610841300005,9.920734645000039]]],[[[125.91140394700005,9.907754732000058],[125.8924820630001,9.895883903000026],[125.89531750700007,9.898255955000025],[125.89535218100002,9.903431251000029],[125.89135141200006,9.906817078000074],[125.90041316600002,9.918574999000043],[125.91140394700005,9.907754732000058]]],[[[125.44991112000002,9.90818340900006],[125.44189453100012,9.912475586000028],[125.44189453100012,9.917297363000046],[125.44756115400003,9.914861944000052],[125.44991112000002,9.90818340900006]]],[[[125.59508115100004,9.804519580000033],[125.58480965400008,9.81575960500004],[125.60050042800003,9.822027755000022],[125.59721813100009,9.832592297000076],[125.58971950700004,9.835391044000062],[125.58079558800011,9.819940213000052],[125.5784954720001,9.838968368000053],[125.59507153100003,9.853071775000046],[125.59986876300002,9.878706544000067],[125.61516495100011,9.881819346000043],[125.62192328300011,9.909092821000058],[125.64212491600006,9.916042788000027],[125.64393267000003,9.861680087000025],[125.65418606800006,9.86494590600006],[125.65900179900007,9.84901992500005],[125.67906486900006,9.856733013000053],[125.68785382900012,9.849166270000069],[125.65941031700004,9.827690584000038],[125.64200530300002,9.825048312000035],[125.63615726800003,9.832315739000023],[125.62175938400003,9.827051264000033],[125.59508115100004,9.804519580000033]]],[[[125.90789817500001,9.915002099000048],[125.90741851700011,9.915190702000075],[125.907953528,9.915327999000056],[125.90789817500001,9.915002099000048]]],[[[125.96760366100011,9.91142654500004],[125.97414271700006,9.912772734000043],[125.96765275400003,9.90902905400003],[125.96760366100011,9.91142654500004]]],[[[125.61117309700012,9.912173333000055],[125.6123922910001,9.890065270000036],[125.59603354,9.89094330200004],[125.58347334200005,9.853696298000045],[125.57687656700011,9.85290186800006],[125.58096390700007,9.86515128600007],[125.57398311600002,9.876337486000068],[125.5835659380001,9.895082371000058],[125.56540385500011,9.880744088000029],[125.55994310400001,9.894657124000048],[125.57143272600001,9.909464759000059],[125.58534775600003,9.897506025000041],[125.591597653,9.907614724000041],[125.61117309700012,9.912173333000055]]],[[[125.96582633100002,9.911359593000043],[125.96530652400008,9.911619071000075],[125.96576463500003,9.911689263000028],[125.96582633100002,9.911359593000043]]],[[[125.97191073600004,9.906966165000028],[125.97212429900003,9.907630446000042],[125.97265812300009,9.906915548000029],[125.97191073600004,9.906966165000028]]],[[[125.97375989400007,9.907528384000045],[125.97429297400004,9.90724616600005],[125.97307239600002,9.907502687000033],[125.97375989400007,9.907528384000045]]],[[[125.92442581500006,9.906336358000033],[125.92580058500005,9.906623380000042],[125.92623240300009,9.905727462000073],[125.92442581500006,9.906336358000033]]],[[[125.93693302000008,9.903206397000076],[125.93663844900004,9.903583911000055],[125.93709451000007,9.903985247000037],[125.93693302000008,9.903206397000076]]],[[[125.51755050800011,9.90329242000007],[125.51787893700009,9.903247326000042],[125.5177573630001,9.903076221000049],[125.51755050800011,9.90329242000007]]],[[[125.89455961700003,9.90131864500006],[125.89426519200003,9.901233627000067],[125.89431423700012,9.901393312000039],[125.89455961700003,9.90131864500006]]],[[[125.90394662300002,9.899678982000069],[125.90668144200004,9.897771633000048],[125.90503822100004,9.895296839000025],[125.90394662300002,9.899678982000069]]],[[[125.8910989960001,9.900606637000067],[125.89194536500008,9.900730878000047],[125.89145110200002,9.899681593000025],[125.8910989960001,9.900606637000067]]],[[[125.91497592400003,9.90027107900005],[125.9143083570001,9.900422932000026],[125.91435435200003,9.900571343000024],[125.91497592400003,9.90027107900005]]],[[[125.90997958000003,9.899515550000046],[125.91018928400001,9.899620979000076],[125.91012829300007,9.899420761000044],[125.90997958000003,9.899515550000046]]],[[[125.90899315000001,9.898884294000027],[125.90998211900012,9.899185770000031],[125.9101518760001,9.898459691000028],[125.90899315000001,9.898884294000027]]],[[[125.90811553700007,9.897638980000067],[125.90913797200005,9.898309993000055],[125.90914126000007,9.897210462000032],[125.90811553700007,9.897638980000067]]],[[[125.9058250490001,9.894538229000034],[125.90652823500011,9.894722853000076],[125.90638545500008,9.893871310000065],[125.9058250490001,9.894538229000034]]],[[[125.90112293900006,9.894776251000053],[125.9008891530001,9.894600217000061],[125.9010093500001,9.894802954000056],[125.90112293900006,9.894776251000053]]],[[[125.90271473400003,9.89444026700005],[125.90247796400001,9.893458379000037],[125.90175918600005,9.894152354000028],[125.90271473400003,9.89444026700005]]],[[[125.9516911180001,9.85071743900005],[125.9243093130001,9.868774534000067],[125.95408514200005,9.892309441000066],[125.96652197300011,9.86261281800006],[125.9516911180001,9.85071743900005]]],[[[125.92968573600001,9.891851554000027],[125.92864792900002,9.892119657000023],[125.92921061100003,9.89267550300002],[125.92968573600001,9.891851554000027]]],[[[125.53248027900008,9.892171302000065],[125.53226873300002,9.891729804000022],[125.53205719000005,9.891905785000063],[125.53248027900008,9.892171302000065]]],[[[125.9472410300001,9.89164912900003],[125.94805586600012,9.891179459000057],[125.94722567200006,9.89135311900003],[125.9472410300001,9.89164912900003]]],[[[125.53301212800011,9.891126705000033],[125.53265612300004,9.891235334000044],[125.53285617900008,9.891382758000077],[125.53301212800011,9.891126705000033]]],[[[125.96229892100007,9.890411782000058],[125.96339752100005,9.890673549000041],[125.96216498400008,9.889924858000029],[125.96229892100007,9.890411782000058]]],[[[125.53325313900007,9.890690638000024],[125.53315074800003,9.890246814000022],[125.53298849900011,9.890699950000055],[125.53325313900007,9.890690638000024]]],[[[125.96010187700006,9.889269048000074],[125.96205391300009,9.888722350000023],[125.96043928100005,9.88649798800003],[125.96010187700006,9.889269048000074]]],[[[125.94711039800006,9.889007695000032],[125.9478546360001,9.888657084000045],[125.9474413590001,9.888109720000045],[125.94711039800006,9.889007695000032]]],[[[125.53390144900004,9.887717235000025],[125.5338384370001,9.887274962000049],[125.53356749700004,9.88741618000006],[125.53390144900004,9.887717235000025]]],[[[125.96697190800012,9.862466804000064],[125.97028611600001,9.863139541000066],[125.96894643100006,9.86133617400003],[125.96697190800012,9.862466804000064]]],[[[125.97141685200006,9.863407798000026],[125.97371584700011,9.86250302600007],[125.97157515200001,9.862047791000066],[125.97141685200006,9.863407798000026]]],[[[125.96735137100006,9.86159923300005],[125.97100895200003,9.860893179000072],[125.96897756400006,9.859246883000026],[125.96866458200009,9.857466069000054],[125.96735137100006,9.86159923300005]]],[[[125.96987004200003,9.859127406000027],[125.97004171000003,9.859642496000049],[125.97051570000008,9.859388033000073],[125.96987004200003,9.859127406000027]]],[[[125.96618356400006,9.857426935000035],[125.96536121000008,9.857178753000028],[125.965656652,9.857747677000077],[125.96524429400006,9.859126945000071],[125.96618356400006,9.857426935000035]]],[[[125.96312456100009,9.858496],[125.96280095400004,9.85839816500004],[125.9630971680001,9.858641075000037],[125.96312456100009,9.858496]]],[[[125.97004102200003,9.858328634000031],[125.97121791900008,9.858006325000076],[125.970245696,9.857398800000055],[125.97004102200003,9.858328634000031]]],[[[125.96550199400008,9.856621887000074],[125.96261177800011,9.856391615000064],[125.96463192400006,9.858301245000064],[125.96550199400008,9.856621887000074]]],[[[126.11399234700002,9.855641867000031],[126.11560626100004,9.857195037000054],[126.11646774600001,9.856639710000024],[126.11574899300001,9.856007377000026],[126.11399234700002,9.855641867000031]]],[[[125.96819153700005,9.854548781000062],[125.97281023300002,9.855264418000047],[125.96438714200008,9.852143650000073],[125.96499252000001,9.854230062000056],[125.96819153700005,9.854548781000062]]],[[[125.967188684,9.855770450000023],[125.96821720500009,9.856400234000034],[125.96722784300005,9.855356141000073],[125.967188684,9.855770450000023]]],[[[126.11342256400007,9.855945500000075],[126.11275755600002,9.856276953000076],[126.11356621100003,9.856485169000052],[126.11342256400007,9.855945500000075]]],[[[125.96785612200006,9.855676692000031],[125.96814318500003,9.855287590000046],[125.96775382400006,9.855226165000033],[125.96785612200006,9.855676692000031]]],[[[125.88395799400007,9.496625582000036],[125.87907401600012,9.468664635000039],[125.8650845730001,9.467210005000027],[125.74861908000003,9.326040268000042],[125.74344635000011,9.384949684000048],[125.72396087600009,9.41349029600002],[125.70017242400002,9.429679871000076],[125.55367266100006,9.46576910300007],[125.57206732000009,9.506158775000074],[125.54350962400008,9.528788147000057],[125.4878418180001,9.53633105800003],[125.49075015000005,9.527248033000035],[125.48325199700002,9.528493892000029],[125.47373141500009,9.51452034600004],[125.4772066050001,9.476950217000024],[125.48967742900004,9.455960274000063],[125.45334763300002,9.439441353000063],[125.39103199200008,9.655897624000033],[125.40107978500009,9.767315704000055],[125.4389541590001,9.792260930000054],[125.43550988200002,9.822803831000044],[125.45545297300009,9.815637624000033],[125.45938900500005,9.800978360000045],[125.49629337400006,9.792639224000027],[125.50237163200006,9.783443592000026],[125.49622003200011,9.776718436000067],[125.5064790780001,9.765811039000027],[125.53439181600004,9.773426588000063],[125.53493521700011,9.770382437000023],[125.54061872800003,9.766497399000059],[125.55697938800006,9.764129223000054],[125.55418211800009,9.759846167000035],[125.55797126100003,9.75069654500004],[125.5732470050001,9.762123605000056],[125.56618085800005,9.743121905000066],[125.57382297400011,9.733383944000025],[125.572117853,9.744789724000043],[125.57310174100007,9.745789787000035],[125.582328318,9.745579935000023],[125.58304075800004,9.734069847000058],[125.58734654300008,9.740254764000042],[125.59069506300011,9.731036655000025],[125.5929986750001,9.751639995000062],[125.59938027100009,9.746518042000048],[125.59915319100003,9.75453172300007],[125.6186989900001,9.751197791000038],[125.61527826800011,9.734942162000038],[125.60463133200005,9.731079871000077],[125.611782016,9.725196444000062],[125.60985184100002,9.709769639000058],[125.59937058000003,9.707228735000058],[125.59814146400004,9.70088071500004],[125.5941693200001,9.704853010000022],[125.59017001200004,9.700448666000057],[125.59023513600005,9.695324156000027],[125.6063421450001,9.676888536000035],[125.59749520000003,9.661212076000027],[125.60357424100005,9.660096207000038],[125.60833030100002,9.633647236000058],[125.6343276,9.613923215000057],[125.65488022200009,9.602210128000024],[125.71005008000009,9.59656263100004],[125.73314022500006,9.58188573600006],[125.74030058900007,9.59153662600005],[125.74093301500011,9.565319991000024],[125.76568091400009,9.553093112000056],[125.7899644900001,9.558384727000032],[125.86041412200007,9.534570269000028],[125.87752559600005,9.514354166000032],[125.87364274200002,9.500510108000071],[125.88395799400007,9.496625582000036]]],[[[125.70999254700007,9.79158423900003],[125.71055872400007,9.810612477000063],[125.71622647900006,9.813184697000054],[125.72204747700005,9.806871052000076],[125.71741556200004,9.788324352000075],[125.74081965700009,9.781484230000046],[125.72332655800005,9.764161493000074],[125.72575530000006,9.75323645100002],[125.71679326600008,9.764852530000041],[125.70075182500011,9.764352466000048],[125.6961279410001,9.792601661000049],[125.70999254700007,9.79158423900003]]],[[[125.58987347200002,9.798031560000027],[125.58206499200003,9.79912005600005],[125.5855336520001,9.802048419000073],[125.58987347200002,9.798031560000027]]],[[[125.62895129900005,9.783951881000064],[125.637925074,9.798907178000036],[125.64740298000004,9.792611824000062],[125.65346528400005,9.773761121000064],[125.66770037300012,9.766863083000032],[125.66859874300008,9.758371565000061],[125.66490258500005,9.752535083000055],[125.65293995000002,9.754935340000031],[125.65192458600006,9.772393170000043],[125.63387392800007,9.76986781100004],[125.64218930800007,9.775060324000037],[125.6360255940001,9.780646121000075],[125.63160091600002,9.775754135000057],[125.63123372200005,9.779481556000064],[125.63947517200006,9.783240457000034],[125.62895129900005,9.783951881000064]]],[[[125.65486228700001,9.79216578300003],[125.64917632800007,9.793714291000072],[125.65358979000007,9.79740535600007],[125.65486228700001,9.79216578300003]]],[[[125.54532982400008,9.789211401000045],[125.5456836950001,9.787610230000041],[125.54507056800003,9.788732140000036],[125.54532982400008,9.789211401000045]]],[[[125.54233908100002,9.779795224000054],[125.55246497400003,9.788416535000067],[125.55861176700012,9.779329200000063],[125.5493811990001,9.77707580300006],[125.54233908100002,9.779795224000054]]],[[[125.5372084930001,9.781215578000058],[125.53658815600011,9.781062888000065],[125.53674129,9.781396286000074],[125.5372084930001,9.781215578000058]]],[[[125.53865443100005,9.780778630000043],[125.53777025000011,9.780569832000026],[125.53769578700008,9.780811982000046],[125.53865443100005,9.780778630000043]]],[[[125.53894694200005,9.778480666000064],[125.54189308600007,9.778311570000028],[125.54114413500008,9.77691578300005],[125.53894694200005,9.778480666000064]]],[[[125.53889884600005,9.777666949000036],[125.53645794400006,9.772666619000063],[125.5343823390001,9.774013638000042],[125.53160193300005,9.774791744000026],[125.53515294300007,9.779798278000044],[125.53889884600005,9.777666949000036]]],[[[125.56073656100011,9.767296438000074],[125.54123298000002,9.771365613000057],[125.53863810200005,9.776400347000049],[125.55962158000011,9.777118210000026],[125.56073656100011,9.767296438000074]]],[[[125.63072023000007,9.770450095000058],[125.62442658300006,9.774149302000069],[125.63173287500001,9.775540206000073],[125.63072023000007,9.770450095000058]]],[[[125.5213012690001,9.773681641000053],[125.52209472700008,9.770874023000033],[125.51892089900002,9.771728516000053],[125.5213012690001,9.773681641000053]]],[[[125.53613423500008,9.772555753000063],[125.53587371600008,9.772345101000042],[125.53600194800003,9.772592133000046],[125.53613423500008,9.772555753000063]]],[[[125.53825627700007,9.771269063000034],[125.53696574300011,9.771112386000027],[125.53889293500004,9.772257316000037],[125.53825627700007,9.771269063000034]]],[[[125.5367698980001,9.771638332000066],[125.53548141300007,9.770937988000071],[125.53568404100008,9.772145898000076],[125.5367698980001,9.771638332000066]]],[[[125.538774181,9.770821969000053],[125.54000582000003,9.77094652900007],[125.53890998400004,9.770307113000058],[125.538774181,9.770821969000053]]],[[[125.53993728400008,9.771351494000044],[125.54000518500004,9.771663768000053],[125.54031451000003,9.771425846000056],[125.53993728400008,9.771351494000044]]],[[[125.54045219500006,9.77067676200005],[125.5403786380001,9.771239968000032],[125.54089543600003,9.770974165000041],[125.54045219500006,9.77067676200005]]],[[[125.54223979500011,9.770903419000035],[125.54313474600008,9.770826832000068],[125.54219516700005,9.77086179500003],[125.54223979500011,9.770903419000035]]],[[[125.6320107790001,9.770264853000072],[125.63363939200008,9.770472348000055],[125.633391834,9.76952568400003],[125.6320107790001,9.770264853000072]]],[[[125.53881714400006,9.770012585000075],[125.54001046500002,9.769186847000071],[125.539021122,9.769622058000039],[125.53881714400006,9.770012585000075]]],[[[125.5423336450001,9.770756905000042],[125.5440138030001,9.770607768000048],[125.54288872000006,9.77046533600003],[125.5423336450001,9.770756905000042]]],[[[125.54172087600011,9.770528128000024],[125.54183119000004,9.770716694000043],[125.54202569900008,9.770520065000028],[125.54172087600011,9.770528128000024]]],[[[125.54245786100012,9.770389353000041],[125.54264695800009,9.770449911000071],[125.54267322900012,9.77041911300006],[125.54245786100012,9.770389353000041]]],[[[125.541983705,9.770416371000067],[125.54234905100009,9.770159788000058],[125.54168198100001,9.769991850000054],[125.541983705,9.770416371000067]]],[[[125.54264980200003,9.770126145000063],[125.54324122900005,9.769752216000029],[125.54219894800008,9.769907130000036],[125.54264980200003,9.770126145000063]]],[[[125.58042849100002,9.770050405000063],[125.58090422200007,9.767305543000077],[125.57954815200003,9.76781313500004],[125.58042849100002,9.770050405000063]]],[[[125.54229894600007,9.769798435000041],[125.54266320200009,9.76971089400007],[125.54219944300007,9.769751128000053],[125.54229894600007,9.769798435000041]]],[[[125.54548393100004,9.769507586000032],[125.54458681000006,9.76926644100007],[125.54494381300003,9.769662733000075],[125.54548393100004,9.769507586000032]]],[[[125.54541005700003,9.768969947000073],[125.54629678100002,9.768828607000046],[125.54604897700005,9.768459904000053],[125.54541005700003,9.768969947000073]]],[[[125.62550443600003,9.739962769000044],[125.62223442200002,9.75321593800004],[125.63659420700003,9.769124440000041],[125.6410534580001,9.754838515000074],[125.62550443600003,9.739962769000044]]],[[[125.54046750400005,9.768799351000041],[125.54116890000012,9.768925104000061],[125.54074144900005,9.767991661000053],[125.54046750400005,9.768799351000041]]],[[[125.54532877500003,9.768341312000075],[125.54612642300003,9.76823478600005],[125.54392361100008,9.768080421000036],[125.54532877500003,9.768341312000075]]],[[[125.5413885270001,9.767448685000033],[125.54033079600003,9.767822017000071],[125.54115914700003,9.767716903000064],[125.5413885270001,9.767448685000033]]],[[[125.61625404400002,9.75333200800003],[125.60185594100005,9.758587129000034],[125.5945532830001,9.756612924000024],[125.61455809300003,9.765616364000039],[125.61625404400002,9.75333200800003]]],[[[126.16752146800002,9.765140313000074],[126.16820209200012,9.765560872000037],[126.16827580900008,9.765005754000072],[126.16752146800002,9.765140313000074]]],[[[125.57779644200002,9.76183799200004],[125.57872130300007,9.762779092000073],[125.5785327540001,9.761409894000053],[125.57779644200002,9.76183799200004]]],[[[125.57729305700002,9.762137800000062],[125.5748129860001,9.761801461000061],[125.57538659300008,9.762915534000058],[125.57729305700002,9.762137800000062]]],[[[125.5651085180001,9.761417957000049],[125.56641509700012,9.761693399000023],[125.56647734800003,9.761197198000048],[125.5651085180001,9.761417957000049]]],[[[125.56680159100006,9.761993438000047],[125.5682443070001,9.761672210000029],[125.56695185300009,9.760980077000056],[125.56680159100006,9.761993438000047]]],[[[125.62324792000004,9.761524806000068],[125.622845417,9.762258416000066],[125.6235865750001,9.761597665000068],[125.62324792000004,9.761524806000068]]],[[[125.61948923300008,9.758998861000066],[125.62196698500009,9.760969314000022],[125.62236584900006,9.759625998000047],[125.61948923300008,9.758998861000066]]],[[[125.55622934700011,9.759666891000052],[125.55587332200002,9.759321557000021],[125.55680476100008,9.760716496000043],[125.55622934700011,9.759666891000052]]],[[[125.98610961100007,9.682784087000073],[125.98803102600004,9.644879324000044],[125.96523245100002,9.615302861000032],[125.970736686,9.584664081000028],[125.96251560900009,9.567641251000055],[125.93264816600004,9.561745544000075],[125.9392880260001,9.574243748000072],[125.93699712500006,9.579084988000034],[125.92973370100003,9.58228278100006],[125.91241433000005,9.582621681000035],[125.91248809700005,9.590325274000065],[125.90809445200011,9.59249970600007],[125.90598012700002,9.59770453300007],[125.91187938100006,9.592742086000044],[125.91729049300011,9.598209543000053],[125.90974654700005,9.614386164000052],[125.90879831000007,9.610545756000022],[125.89693462200012,9.616531921000046],[125.89370034800004,9.612110605000055],[125.88949184300009,9.614771951000023],[125.89088466500004,9.611014074000025],[125.88770714000009,9.611781828000062],[125.89025055400009,9.621946216000026],[125.90658741200002,9.622948072000042],[125.89623950100008,9.627647896000042],[125.90113141000006,9.632291191000036],[125.90759082300008,9.628272114000026],[125.90748130400004,9.62228938100003],[125.90843712600008,9.621278240000038],[125.91092106500003,9.627426871000068],[125.90187916500008,9.638468955000064],[125.90705920100004,9.653262465000068],[125.92708128700008,9.654238444000043],[125.92759232500009,9.674823824000043],[125.9156469300001,9.69564385600006],[125.92508144700003,9.70356890000005],[125.91047643900004,9.706604798000058],[125.90603961500005,9.72028371600004],[125.92071199000009,9.726891787000056],[125.91103774400005,9.740134337000029],[125.91525377700009,9.756565890000047],[125.94637861000001,9.756480621000037],[125.9358437730001,9.746980360000066],[125.94742521600006,9.745452413000066],[125.9389214040001,9.732117320000043],[125.95172107600001,9.740375586000027],[125.96022678700001,9.733925904000046],[125.96332473000007,9.744804410000029],[125.97132378000003,9.728375468000024],[125.96347938000008,9.725204089000044],[125.96249481200005,9.73275970900005],[125.95905483400009,9.722116282000059],[125.96037850100004,9.687998365000055],[125.98610961100007,9.682784087000073]]],[[[125.69208154900002,9.75682469800006],[125.69125237900005,9.758104509000077],[125.6941724300001,9.758000325000069],[125.69208154900002,9.75682469800006]]],[[[125.67440224400002,9.75691140500004],[125.67613387100005,9.751396484000054],[125.67190397800005,9.756701088000057],[125.67440224400002,9.75691140500004]]],[[[126.13066359600009,9.754828381000038],[126.13218511700006,9.75511737000005],[126.13142010800004,9.753909487000044],[126.13066359600009,9.754828381000038]]],[[[126.13088094700004,9.754045588000054],[126.13096611000003,9.753807779000056],[126.1308188480001,9.753827014000024],[126.13088094700004,9.754045588000054]]],[[[125.69458386800011,9.753067385000065],[125.70426856100005,9.743757457000072],[125.70133219500008,9.73519477700006],[125.69027806300005,9.736735168000052],[125.69235436100007,9.74433435100002],[125.68969180400006,9.74627528600007],[125.67861733400002,9.74014341000003],[125.69458386800011,9.753067385000065]]],[[[126.03970092600002,9.75127556700005],[126.04183450300002,9.743197792000046],[126.035342162,9.743976430000032],[126.03970092600002,9.75127556700005]]],[[[126.1713807540001,9.745871239000053],[126.16467774700004,9.736534190000043],[126.15319338600011,9.738545024000075],[126.15496758600011,9.742998965000027],[126.1713807540001,9.745871239000053]]],[[[125.64287464000006,9.73679848100005],[125.63777357700008,9.739407523000068],[125.64882746400008,9.739900544000022],[125.64287464000006,9.73679848100005]]],[[[126.04244421200008,9.73977074000004],[126.04697160500007,9.733818271000075],[126.04037262300005,9.73710138000007],[126.04244421200008,9.73977074000004]]],[[[126.02982585000007,9.734079203000022],[126.03677475000006,9.724453304000065],[126.04478298800007,9.733207578000076],[126.07068998700004,9.728644442000075],[126.06400973400002,9.71614171400006],[126.07050592600001,9.709563582000044],[126.04184969000005,9.703712659000075],[126.0333923180001,9.714345236000042],[126.021997,9.707741863000024],[126.02812025000003,9.70410920200004],[126.02182749200006,9.689814193000075],[126.00576106500012,9.683308014000033],[126.01083834100007,9.715539164000063],[126.01479088100007,9.72110269500007],[126.02287396100007,9.717039617000069],[126.01689104500008,9.726165922000064],[126.02982585000007,9.734079203000022]]],[[[125.98245015300006,9.736551761000044],[125.98646765300009,9.728254707000076],[126.000542891,9.726863869000056],[125.99368047100006,9.722533533000046],[126.00350675100003,9.720509125000035],[125.99768918400002,9.714055342000051],[126.00887787500005,9.70322092300006],[125.99590128300008,9.691337270000076],[125.98103103100004,9.698674743000026],[125.98313426300001,9.686869699000056],[125.97424334100003,9.689170726000043],[125.96598851100009,9.713831308000067],[125.97041821800008,9.719110684000043],[125.97059290300001,9.722171565000053],[125.97176513300008,9.723604022000075],[125.98071917300001,9.71925066700004],[125.98245015300006,9.736551761000044]]],[[[126.12544642500006,9.734906885000044],[126.1265161440001,9.734777459000043],[126.12675243300009,9.734507964000045],[126.12544642500006,9.734906885000044]]],[[[125.66226927100001,9.668498123000063],[125.64364027300007,9.66949729700002],[125.64384693800002,9.697653142000036],[125.6359179850001,9.711553860000038],[125.63114812000003,9.70376617900007],[125.61694353200005,9.70451593200005],[125.62257267500001,9.710405661000038],[125.62659968800006,9.72739776800006],[125.63938037000003,9.718503233000035],[125.64888318200008,9.726830008000036],[125.66395468700011,9.721578597000075],[125.65000924200001,9.710734612000067],[125.66064779800001,9.699278117000063],[125.65520219300004,9.689163928000028],[125.66226927100001,9.668498123000063]]],[[[125.620689018,9.713035268000056],[125.6187379800001,9.712880720000044],[125.61879638800008,9.713430981000045],[125.620689018,9.713035268000056]]],[[[125.66336452500002,9.709866245000057],[125.6732943400001,9.700268106000067],[125.67225773200005,9.694183129000066],[125.66445774300007,9.69062219600005],[125.6702857790001,9.697130362000053],[125.66336452500002,9.709866245000057]]],[[[125.6035750530001,9.707323453000072],[125.60196496300011,9.707371430000023],[125.60268147300008,9.707926893000035],[125.6035750530001,9.707323453000072]]],[[[125.608736313,9.700349501000062],[125.61298851200002,9.705294667000032],[125.61684062100005,9.699875367000061],[125.61460438000006,9.697593143000063],[125.608736313,9.700349501000062]]],[[[125.59405615600008,9.702519766000023],[125.593914519,9.702697900000032],[125.59406172900003,9.702635476000069],[125.59405615600008,9.702519766000023]]],[[[125.59290613500002,9.702492050000046],[125.59305710000001,9.702236779000032],[125.5927720300001,9.702143068000055],[125.59290613500002,9.702492050000046]]],[[[126.03679473500006,9.699436785000046],[126.03955423600007,9.699526097000046],[126.03817332800008,9.698252874000048],[126.03679473500006,9.699436785000046]]],[[[125.59287280400008,9.699622584000053],[125.593218266,9.70030956200003],[125.59326446800003,9.699459898000043],[125.59287280400008,9.699622584000053]]],[[[125.59215475000008,9.699906334000048],[125.59260969800005,9.70022999300005],[125.59268851500008,9.699543078000033],[125.59215475000008,9.699906334000048]]],[[[125.59257563300002,9.699289427000053],[125.59104004700009,9.699887244000024],[125.59132172600005,9.700277114000073],[125.59257563300002,9.699289427000053]]],[[[125.60779512500005,9.698259506000056],[125.60744939000006,9.697824143000048],[125.60730276600009,9.698138176000043],[125.60779512500005,9.698259506000056]]],[[[125.61250959800009,9.69808920500003],[125.6122091090001,9.697784098000056],[125.6122688480001,9.698024975000067],[125.61250959800009,9.69808920500003]]],[[[126.07396526800005,9.69681842600005],[126.09022078900011,9.695085407000022],[126.0906268330001,9.692170875000045],[126.08073201600007,9.68956776400006],[126.07396526800005,9.69681842600005]]],[[[125.59227699700011,9.696465863000071],[125.5916761630001,9.696087302000024],[125.59167416700006,9.696584992000055],[125.59227699700011,9.696465863000071]]],[[[125.59150004700007,9.695441727000059],[125.59106893800003,9.695472014000075],[125.59123914800011,9.695843421000063],[125.59150004700007,9.695441727000059]]],[[[125.59144214000003,9.695072122000056],[125.59101289600005,9.69476852400004],[125.59105989900002,9.69535952800004],[125.59144214000003,9.695072122000056]]],[[[125.60553828200011,9.695007343000043],[125.6058287400001,9.695066762000067],[125.60568076900006,9.694870490000028],[125.60553828200011,9.695007343000043]]],[[[125.60605707500008,9.694153817000029],[125.60564970200005,9.693793687000039],[125.60555654200004,9.694227650000073],[125.60605707500008,9.694153817000029]]],[[[125.61188850300005,9.685950877000039],[125.60228009000002,9.690260641000066],[125.61390884200011,9.692196667000076],[125.61188850300005,9.685950877000039]]],[[[125.6260986320001,9.69030761700003],[125.62670898400006,9.692077637000068],[125.62829589800003,9.69189453100006],[125.6260986320001,9.69030761700003]]],[[[125.60211256100001,9.690237301000025],[125.60164274200008,9.69030908700006],[125.60187582000003,9.690596295000034],[125.60211256100001,9.690237301000025]]],[[[125.66679632500006,9.687274476000027],[125.66821280200008,9.687462339000035],[125.66683921700007,9.686278927000046],[125.66679632500006,9.687274476000027]]],[[[126.01853825500007,9.686296703000039],[126.02045609600009,9.687221133000037],[126.01980602100002,9.685357887000066],[126.01853825500007,9.686296703000039]]],[[[125.61612042700006,9.687291230000028],[125.61771840500012,9.68696192300007],[125.61628098800009,9.68693647300006],[125.61612042700006,9.687291230000028]]],[[[125.99535642,9.686043424000047],[125.99577375500007,9.687625340000068],[125.99675078700011,9.686569070000075],[125.99535642,9.686043424000047]]],[[[125.61536153600002,9.685999382000034],[125.6166073060001,9.686792566000065],[125.61676786200007,9.686155824000025],[125.61536153600002,9.685999382000034]]],[[[125.66060816000004,9.685426293000035],[125.66140170200003,9.68485572800006],[125.66042053300009,9.684861966000028],[125.66060816000004,9.685426293000035]]],[[[125.66959691900001,9.678484947000072],[125.67465602900006,9.67977991400005],[125.67293358500001,9.674345548000076],[125.66959691900001,9.678484947000072]]],[[[125.70647151100002,9.666830592000053],[125.7079055150001,9.668292480000048],[125.70691349900005,9.664097784000035],[125.70647151100002,9.666830592000053]]],[[[125.92597444600005,9.655861723000044],[125.92589345800002,9.656649609000056],[125.92602812700011,9.656717784000023],[125.92597444600005,9.655861723000044]]],[[[125.71484545500005,9.652259095000034],[125.71317334900004,9.654375366000068],[125.71436149700003,9.654839019000065],[125.71484545500005,9.652259095000034]]],[[[126.17779074900011,9.640509570000063],[126.18052242700003,9.629308818000027],[126.17630781300011,9.618820807000077],[126.17275128800009,9.629766437000058],[126.17779074900011,9.640509570000063]]],[[[126.17448103700008,9.61234053000004],[126.18250854900009,9.611304137000047],[126.17101041100011,9.608365029000026],[126.17448103700008,9.61234053000004]]],[[[126.14626221500009,9.611640231000024],[126.12900249200004,9.602834160000043],[126.14666742700001,9.613859664000074],[126.14626221500009,9.611640231000024]]],[[[125.91008658200008,9.612085165000053],[125.90978863600003,9.610988731000077],[125.90929900800006,9.611652928000069],[125.91008658200008,9.612085165000053]]],[[[125.71929931600005,9.604309083000032],[125.71436325700006,9.605065860000025],[125.71808155400004,9.606785151000054],[125.71929931600005,9.604309083000032]]],[[[126.17836573500006,9.602975503000039],[126.17896779300008,9.605168540000022],[126.18032403300003,9.602635716000066],[126.17836573500006,9.602975503000039]]],[[[125.90628417100004,9.59575297300006],[125.90326734900009,9.596897931000058],[125.90451283700008,9.599333709000064],[125.90628417100004,9.59575297300006]]],[[[125.9120474560001,9.595236334000049],[125.91246675800005,9.596068105000029],[125.912763347,9.59540368200004],[125.9120474560001,9.595236334000049]]],[[[125.90547874100002,9.59451208400003],[125.90652794000005,9.593705488000069],[125.90609647200006,9.593791058000022],[125.90547874100002,9.59451208400003]]],[[[125.91099559500003,9.589668784000025],[125.91013123800008,9.588816505000068],[125.91057568700012,9.590350374000025],[125.91099559500003,9.589668784000025]]],[[[125.911613611,9.58913085100005],[125.91113092900002,9.589148055000067],[125.91110766700001,9.589300011000034],[125.911613611,9.58913085100005]]],[[[125.76761712400003,9.578581769000039],[125.7636368950001,9.574618464000025],[125.7558609350001,9.577106852000043],[125.75483445000009,9.579457712000021],[125.76761712400003,9.578581769000039]]],[[[125.91361842100002,9.582164894000073],[125.91394872900003,9.581976567000027],[125.9137465010001,9.581810392000023],[125.91361842100002,9.582164894000073]]],[[[125.91642941100008,9.58211172600005],[125.91671253200002,9.58215603900004],[125.91653726700008,9.58202088400003],[125.91642941100008,9.58211172600005]]],[[[125.9154115230001,9.582107294000025],[125.91511492000006,9.58195884600002],[125.91524524400006,9.58219592000006],[125.9154115230001,9.582107294000025]]],[[[125.91581373400004,9.581974357000036],[125.9161799960001,9.582051904000025],[125.91613280800004,9.581914535000067],[125.91581373400004,9.581974357000036]]],[[[125.91658445200005,9.581520150000074],[125.91686083200011,9.581797103000042],[125.91671702400004,9.581396072000075],[125.91658445200005,9.581520150000074]]],[[[125.92868363200012,9.581009416000029],[125.92826769400006,9.580089405000024],[125.92800987300006,9.58083530500005],[125.92868363200012,9.581009416000029]]],[[[125.9257870890001,9.575242672000059],[125.92329194900003,9.578143237000063],[125.92553254000006,9.579088945000024],[125.9257870890001,9.575242672000059]]],[[[125.93624758600004,9.577870985000061],[125.93549276200008,9.578092690000062],[125.9359866100001,9.578844121000031],[125.93624758600004,9.577870985000061]]],[[[125.93249488100003,9.578236849000064],[125.9320244170001,9.578465762000064],[125.93242092200012,9.578469815000062],[125.93249488100003,9.578236849000064]]],[[[125.93475802000012,9.577185278000059],[125.93425614400007,9.577399064000076],[125.9345211320001,9.577569305000054],[125.93475802000012,9.577185278000059]]],[[[125.93617130000007,9.576729990000047],[125.93553693100012,9.576706235000074],[125.93592638600012,9.577102140000022],[125.93617130000007,9.576729990000047]]],[[[125.9339557720001,9.57115647300003],[125.93596930100011,9.573638373000051],[125.93702238300011,9.572692257000028],[125.9339557720001,9.57115647300003]]],[[[125.784808515,9.57233339000004],[125.78377198800001,9.571360993000042],[125.78452232200004,9.572665527000026],[125.784808515,9.57233339000004]]],[[[125.9358856,9.570891533000065],[125.93537617700008,9.57086133000007],[125.93574943700003,9.57104840900007],[125.9358856,9.570891533000065]]],[[[125.92969944800006,9.566300932000047],[125.93059766500005,9.56830190200003],[125.93310789000009,9.568605353000066],[125.92969944800006,9.566300932000047]]],[[[125.92837962400006,9.56659946700006],[125.9274501220001,9.56616166200007],[125.92752733600003,9.56753945500003],[125.92837962400006,9.56659946700006]]],[[[125.9395844710001,9.560382613000058],[125.9396929510001,9.560139156000048],[125.93952836000005,9.560268262000022],[125.9395844710001,9.560382613000058]]],[[[125.9382130240001,9.559790145000022],[125.93877598200004,9.559460890000025],[125.93815866900002,9.55941877400005],[125.9382130240001,9.559790145000022]]],[[[125.8363622490001,9.55566278200007],[125.83865253300007,9.55361885800005],[125.83496259500009,9.554019246000053],[125.8363622490001,9.55566278200007]]],[[[125.82574082100007,9.554828025000063],[125.82649212400008,9.554400436000037],[125.82608351500005,9.554015460000073],[125.82574082100007,9.554828025000063]]],[[[125.84462906800002,9.542405536000047],[125.84496127500006,9.545456760000036],[125.84700802900011,9.543867013000067],[125.84462906800002,9.542405536000047]]],[[[125.86712936600009,9.54072216700007],[125.87049119100004,9.53985999300005],[125.86679790100004,9.540283574000057],[125.86712936600009,9.54072216700007]]],[[[125.8796997070001,9.535888672000056],[125.8804931630001,9.536926269000048],[125.8806762690001,9.536071778000064],[125.8796997070001,9.535888672000056]]],[[[125.89831543000003,9.534484864000035],[125.8972778320001,9.535705567000036],[125.89849853500004,9.535705567000036],[125.89831543000003,9.534484864000035]]],[[[125.8787231440001,9.534484864000035],[125.88031005900007,9.533874512000068],[125.87951660100009,9.53369140600006],[125.8787231440001,9.534484864000035]]]]}},{"type":"Feature","properties":{"ADM2_EN":"Surigao del Sur","ADM2_PCODE":"PH16068","ADM1_EN":"Region XIII (Caraga)","ADM1_PCODE":"PH16","ADM0_EN":"Philippines (the)","ADM0_PCODE":"PH","date":"2022-11-09","validOn":"2023-11-06","validTo":null,"Shape_Leng":8.88043233677,"Shape_Area":0.38610025877,"ADM2ALT1EN":null,"AREA_SQKM":4698.24455531,"psgc_id":"PH16068","psgc_code":"1606800000","psgc_name":"Surigao del Sur","psgc_status":"matched","match_confidence":1,"psgc_type":"province","match_method":"exact"},"geometry":{"type":"MultiPolygon","coordinates":[[[[126.3683475040001,7.918813413000066],[126.3557873630001,7.922215789000063],[126.35124641100003,7.933008011000027],[126.35158064300003,8.002065937000054],[126.22723862400005,8.000778038000021],[126.257053,8.027617],[126.2498,8.042888],[126.26338735500008,8.051850053000067],[126.2630471550001,8.059588624000071],[126.23662103900006,8.058979033000071],[126.23722187400006,8.131953570000064],[126.21229303700011,8.169986945000062],[126.18415583700005,8.182888171000059],[126.18754018100003,8.19057976800002],[126.16731886100001,8.203217556000027],[126.15496704700001,8.223461438000072],[126.18316727100012,8.244580477000056],[126.16505058500002,8.25959883400003],[126.19962461600005,8.288008542000057],[126.12482541400004,8.323033751000025],[126.12906638200002,8.36267047900003],[126.11381361000008,8.39063531000005],[126.08158939500004,8.406980075000035],[126.06389470500005,8.429067687000042],[126.0739043750001,8.444657716000052],[126.0550898780001,8.447828533000063],[126.01648076700008,8.499474956000029],[126.02193997800009,8.532173914000055],[126.03343986000004,8.539190849000022],[126.02744243000006,8.56862774900003],[126.0001168980001,8.571312676000048],[126.0002461360001,8.599765467000054],[126.03465087000006,8.633442209000066],[125.97028863500009,8.739795165000032],[125.9492966570001,8.81409807600005],[125.89875851600004,8.869284020000066],[125.88502861000006,9.04740326700005],[125.86615462700001,9.093480370000066],[125.84052430800011,9.139607128000023],[125.77549790800003,9.209048868000025],[125.77479362200006,9.223129173000075],[125.75605011000005,9.230010033000042],[125.74353027300003,9.317549705000033],[125.8650845730001,9.467210005000027],[125.87907401600012,9.468664635000039],[125.88379898900007,9.496649028000036],[125.90785744700008,9.49019452500005],[125.90772323700003,9.501655176000043],[125.91725824500008,9.49602363300005],[125.92261197900007,9.484371263000071],[125.91733306800006,9.47501954300003],[125.92724712900008,9.473606527000072],[125.93117900400011,9.455572934000031],[125.94479925000007,9.444990905000054],[125.93865208800003,9.474481728000058],[125.94636602600008,9.465791773000035],[125.94850586900009,9.484485610000036],[125.96244535100004,9.47983221000004],[125.949571493,9.456787406000046],[125.95928057200001,9.451166625000042],[125.95386065000002,9.441397339000048],[125.94548294200001,9.437951869000074],[125.93990597800007,9.445184783000059],[125.93032721300006,9.437319313000046],[125.92279435300009,9.444077286000038],[125.92342760800011,9.436766349000038],[125.89483272400003,9.428614613000036],[125.89362085400012,9.413744312000063],[125.91643079100004,9.398603984000033],[125.91783836900004,9.387704343000053],[125.93215208900006,9.395343197000045],[125.9303529870001,9.386302811000064],[125.93317433900006,9.385088856000039],[125.93715098200005,9.38662799900004],[125.93740578100005,9.38606866400005],[125.93066388300008,9.38448085300007],[125.93224630500004,9.377053233000026],[125.94203047600001,9.370710676000044],[125.97080647100006,9.378343304000055],[125.97189420900008,9.393814078000048],[125.98796773200002,9.403656959000045],[125.98803104300009,9.379226451000022],[125.97434582700009,9.374510947000033],[125.97151136000002,9.365245387000073],[125.97438384500003,9.350646889000075],[125.98631357500005,9.342166382000073],[125.984307682,9.322428838000064],[126.02602076700009,9.257529520000048],[126.056607073,9.233157799000026],[126.129769097,9.26402670300007],[126.16993668500004,9.309302893000051],[126.17964138000002,9.304381524000064],[126.18903320100003,9.313181376000045],[126.20717583800001,9.306010183000069],[126.19071094900005,9.288382269000067],[126.19724259300006,9.270162095000046],[126.18072917000006,9.24492463300004],[126.18548533300009,9.219394653000052],[126.1747350500001,9.202401747000067],[126.17941468100003,9.160505759000046],[126.15798473900009,9.10508573200002],[126.1807866690001,9.079163596000058],[126.19421712700012,9.077903526000057],[126.19253751500003,9.08570056000002],[126.19762204200003,9.089713361000065],[126.21130220300006,9.050566629000059],[126.23777043700011,9.017942035000033],[126.23519618000012,9.01387360700005],[126.22620589500002,9.021590443000036],[126.2239784190001,9.018348762000073],[126.23559699900011,9.008340864000047],[126.24196496400009,9.015412311000034],[126.27540025500002,8.982866434000073],[126.2707576030001,8.969597711000063],[126.28159128900006,8.967410465000057],[126.2890155230001,8.976245892000065],[126.30669774600005,8.956098645000054],[126.31057829500003,8.936193290000062],[126.29061611000009,8.926963559000058],[126.29834181600006,8.92020223000003],[126.3110687520001,8.925820757000054],[126.31176064700003,8.91577359400003],[126.32533393400001,8.919453504000046],[126.32546783400005,8.89690689300005],[126.30678052300004,8.880898459000036],[126.32354275900002,8.870085906000043],[126.33463146400004,8.840739960000064],[126.31479524400004,8.83786058000004],[126.32745870100007,8.824872956000036],[126.30129176500009,8.805758117000039],[126.30248725900003,8.78206857500004],[126.28863576700007,8.77249017500003],[126.26606684400008,8.774537782000039],[126.25628555900005,8.767203813000037],[126.25409128000001,8.773355819000074],[126.23866337900006,8.762819733000072],[126.2375722050001,8.740262378000068],[126.22648832800007,8.743362809000075],[126.21313966100001,8.73351449300003],[126.21198506000007,8.710742799000059],[126.2450067210001,8.695117828000036],[126.2131240870001,8.691465252000057],[126.18806590100007,8.69945253800006],[126.17188102700004,8.680883427000026],[126.1356777090001,8.671406303000026],[126.13948520300005,8.66500017900006],[126.12756036500002,8.654309762000025],[126.09733860800009,8.645913630000052],[126.09679584900005,8.623746233000077],[126.08211890000007,8.611543250000068],[126.12496864800005,8.58293227300004],[126.11230252500002,8.566764400000068],[126.12110002100007,8.560470611000028],[126.12254562300006,8.542807114000027],[126.1426963240001,8.529396360000021],[126.16374448600004,8.530977890000031],[126.15937971000005,8.540601687000049],[126.16444957700003,8.541480835000073],[126.19357537700012,8.526384470000039],[126.22793046400011,8.526515150000023],[126.21304427600012,8.54211723800006],[126.18817640300006,8.546432104000075],[126.18717214600008,8.552353400000072],[126.20655883900008,8.557733632000065],[126.24117664900007,8.548246947000052],[126.26218450500005,8.550620407000054],[126.28789762500003,8.529096630000026],[126.31303112000012,8.538635193000061],[126.31674062900004,8.531699427000035],[126.32401452600004,8.537340929000038],[126.33735555100009,8.529557299000032],[126.34429540600001,8.53539795100005],[126.34076727900003,8.54288377100005],[126.35475910500008,8.548575375000041],[126.36367320200009,8.537678776000064],[126.350913235,8.51976411000004],[126.38813769100011,8.512474015000066],[126.39763888300001,8.49308510000003],[126.3838735710001,8.483014377000075],[126.39490877000003,8.478613348000067],[126.38943320800001,8.471976177000045],[126.39740862800011,8.467805351000038],[126.3546992360001,8.470305058000065],[126.36260755300009,8.462683795000032],[126.3475959210001,8.428045608000048],[126.36353218800002,8.425000271000044],[126.37415469200005,8.431572593000055],[126.38010640000005,8.409426904000043],[126.37049496300006,8.404540836000024],[126.3703524770001,8.39190585600005],[126.35734163200004,8.38686019000005],[126.35494933400003,8.368310273000077],[126.34508805400003,8.37200561800006],[126.3457325380001,8.362868325000022],[126.33785361500009,8.36969367200004],[126.3182252250001,8.352569677000076],[126.33777842900008,8.334479545000022],[126.32635013100003,8.331383059000075],[126.33047083200006,8.313753470000051],[126.37531745500007,8.308143854000036],[126.38295217600012,8.292378928000062],[126.34867771600011,8.25261480200004],[126.32031968800004,8.237931570000057],[126.30817866300004,8.217787651000037],[126.31713984500004,8.223339047000024],[126.33358693500008,8.189538903000027],[126.34399275100009,8.183305159000042],[126.35595690800005,8.195228284000052],[126.36436164000008,8.19134912100003],[126.36518064600011,8.195483164000052],[126.36723279500006,8.198198805000061],[126.37779982300003,8.19609194000003],[126.37689945200009,8.203443396000068],[126.37979178300009,8.197329959000058],[126.393349,8.20483015000002],[126.4384956770001,8.246108076000041],[126.45604406500001,8.244542706000061],[126.4593839040001,8.230599856000026],[126.44636767200006,8.228204825000034],[126.4514755780001,8.221706514000061],[126.4393028180001,8.200413110000056],[126.44457449800007,8.16540813000006],[126.43263100600007,8.155825393000043],[126.43988812100008,8.125792217000026],[126.42629140000008,8.111204999000051],[126.43445789800012,8.099687371000073],[126.44610345100011,8.10140268300006],[126.45273051600009,8.098000623000075],[126.43390270600003,8.088580967000041],[126.42218714100011,8.054729640000062],[126.41245426800003,8.05214060000003],[126.42152956300004,8.050083432000065],[126.413234654,8.032480242000076],[126.42227085700006,8.016031542000064],[126.40625837900006,8.00976716200006],[126.40896570400002,7.995475120000037],[126.4205636150001,7.99469983900002],[126.41600028300002,7.989007229000038],[126.41550267000002,7.983373495000023],[126.43031458200005,7.99361897700004],[126.4494549960001,7.988591548000045],[126.42309894900006,7.979247269000041],[126.40681885800007,7.954186589000074],[126.38608269400004,7.954058917000054],[126.37350958200011,7.941335450000054],[126.3683475040001,7.918813413000066]]],[[[126.01195881600006,9.429970191000052],[126.02571535200002,9.418249155000069],[126.02527734400007,9.411819767000054],[126.01146774300003,9.412844370000073],[126.00955374800003,9.406684247000044],[126.01368587600007,9.401944770000057],[126.00342278300002,9.407412155000031],[126.00857735000011,9.409765784000058],[126.00355579500001,9.414359226000045],[125.99131308200003,9.41150585500003],[126.01195881600006,9.429970191000052]]],[[[125.90857599200001,9.411267687000077],[125.91214790900005,9.41838763100003],[125.91604093800004,9.418784942000059],[125.91489441800002,9.414723330000072],[125.90857599200001,9.411267687000077]]],[[[125.94153934100007,9.407494246000056],[125.93008148000001,9.40180238000005],[125.9287445870001,9.402769177000039],[125.92822047700008,9.401225872000055],[125.92769140300004,9.404123779000031],[125.93453975900002,9.404231117000052],[125.93410046800011,9.411901596000064],[125.92075530700004,9.405294837000042],[125.91648906900002,9.414067327000055],[125.93640360800009,9.41628393600007],[125.94153934100007,9.407494246000056]]],[[[126.01441313100008,9.411884145000045],[126.01390665800011,9.41220749300004],[126.01432519000002,9.412177941000039],[126.01441313100008,9.411884145000045]]],[[[126.01238729500005,9.409075508000058],[126.01228265300006,9.409769507000021],[126.01306710400002,9.409753712000054],[126.01238729500005,9.409075508000058]]],[[[125.9053197500001,9.408070420000058],[125.90427718600006,9.407893565000052],[125.9043342120001,9.409205007000025],[125.9053197500001,9.408070420000058]]],[[[126.01358967200008,9.408247610000046],[126.01409411300006,9.408499884000037],[126.01410024900008,9.408274601000073],[126.01358967200008,9.408247610000046]]],[[[125.9113174370001,9.407639735000032],[125.91170456300006,9.405477830000052],[125.91116767100004,9.405562807000024],[125.9113174370001,9.407639735000032]]],[[[126.01293695000004,9.40645575800005],[126.01329080700009,9.406398155000034],[126.01300843100012,9.406295270000044],[126.01293695000004,9.40645575800005]]],[[[126.01237129800006,9.406089917000031],[126.01264164500003,9.406018846000052],[126.0124412890001,9.405940733000023],[126.01237129800006,9.406089917000031]]],[[[126.05691229600006,9.397966120000035],[126.05437439700006,9.389839892000055],[126.04362136700001,9.387126928000043],[126.04664376300002,9.391541559000075],[126.05691229600006,9.397966120000035]]],[[[125.99426840500007,9.377639673000033],[125.99970647900011,9.373462715000073],[125.99503189500001,9.373448505000056],[125.99426840500007,9.377639673000033]]],[[[126.19404226200004,9.22936057100003],[126.19366095400005,9.233293083000035],[126.19676188800008,9.231610493000062],[126.19404226200004,9.22936057100003]]],[[[126.19554506600002,9.232770042000027],[126.19629646700002,9.233555987000045],[126.19655441100008,9.23299143500003],[126.19554506600002,9.232770042000027]]],[[[126.19652076600005,9.230201872000066],[126.19766469100011,9.230390058000069],[126.19736188800005,9.229836571000021],[126.19652076600005,9.230201872000066]]],[[[126.1986067470001,9.229017408000061],[126.19876375700005,9.229814431000023],[126.1990217010001,9.229017408000061],[126.1986067470001,9.229017408000061]]],[[[126.33963741000002,8.877982347000057],[126.34175563600002,8.879569425000057],[126.34198239000011,8.877101650000043],[126.33963741000002,8.877982347000057]]]]}},{"type":"Feature","properties":{"ADM2_EN":"Dinagat Islands","ADM2_PCODE":"PH16085","ADM1_EN":"Region XIII (Caraga)","ADM1_PCODE":"PH16","ADM0_EN":"Philippines (the)","ADM0_PCODE":"PH","date":"2022-11-09","validOn":"2023-11-06","validTo":null,"Shape_Leng":5.24699111818,"Shape_Area":0.0664396115462,"ADM2ALT1EN":null,"AREA_SQKM":805.29192768,"psgc_id":"PH16085","psgc_code":"1608500000","psgc_name":"Dinagat Islands","psgc_status":"matched","match_confidence":1,"psgc_type":"province","match_method":"exact"},"geometry":{"type":"MultiPolygon","coordinates":[[[[125.49650006000002,10.144394547000047],[125.49857033400008,10.183730989000026],[125.4990101630001,10.177309756000056],[125.50479457400002,10.171935933000043],[125.50682822500005,10.172145077000039],[125.50501042500002,10.185937121000052],[125.51784807700005,10.177498359000026],[125.52603013600003,10.183903488000055],[125.50539835500001,10.194050068000024],[125.49793578800006,10.209358057000031],[125.51930075400003,10.205630135000035],[125.52617519700004,10.190709494000032],[125.54345190600009,10.20348333800007],[125.51234912200005,10.242417770000031],[125.52162323200002,10.24591782300007],[125.51835134100008,10.271043267000039],[125.52713915000004,10.272493781000037],[125.52086042700012,10.27668949200006],[125.53719293900008,10.28051391200006],[125.53518855800007,10.289218325000036],[125.51815465200002,10.285149751000063],[125.52356749500007,10.289742267000065],[125.51502019300005,10.292192004000071],[125.513871504,10.321086077000075],[125.55851022700006,10.319889395000075],[125.5560602060001,10.353275881000059],[125.54628268700003,10.362917269000036],[125.55106019700008,10.384806817000026],[125.56229087400004,10.381936782000025],[125.58050084700005,10.35906839200004],[125.59719769700007,10.36621122300005],[125.60746245000007,10.393288504000054],[125.60261178700011,10.41361639400003],[125.61213244900011,10.410764074000042],[125.6124176190001,10.442038127000046],[125.6212129270001,10.459296293000023],[125.64592688500011,10.470791679000058],[125.65543144300011,10.451709276000031],[125.65272196,10.439520376000075],[125.66938665200007,10.429489875000058],[125.67054397200002,10.407351482000024],[125.68163258200002,10.391692196000065],[125.67316907500003,10.355425187000037],[125.6473095980001,10.30656091800006],[125.65504192500009,10.262313179000046],[125.64399819100004,10.243002584000067],[125.66328407300011,10.202644350000071],[125.64386418300012,10.185145067000065],[125.64997541500009,10.184743163000064],[125.65406212700009,10.164680816000043],[125.66557014700004,10.172628024000062],[125.67579485500005,10.168488922000051],[125.67586596600006,10.153704420000054],[125.65835163300005,10.149430055000039],[125.66478622700004,10.14248376200004],[125.66081325000005,10.120567273000063],[125.68419655100001,10.096695615000044],[125.69806172900007,10.059608549000075],[125.6706193010001,9.993485555000063],[125.67926138400003,9.98104810600006],[125.67978624800003,9.969560173000048],[125.67228130100011,9.969166039000072],[125.67900030800001,9.96220973800007],[125.65665924400002,9.947746107000057],[125.6762554180001,9.935502571000029],[125.67328136800006,9.91719988500006],[125.69376770000008,9.914975520000041],[125.70597411400001,9.90229708000004],[125.70085522600004,9.865181565000057],[125.67798863000007,9.86832223700003],[125.67223,9.852780001000042],[125.66028,9.8525],[125.64082999900006,9.888330002000032],[125.64861000100007,9.89639],[125.644689233,9.935659302000033],[125.59132949100001,9.954837703000067],[125.5907610270001,9.962779622000028],[125.6115672630001,9.953123331000029],[125.61678793600004,9.960432719000039],[125.60352251600011,9.962947180000072],[125.603638885,9.97406968200005],[125.59129898600008,9.978123733000075],[125.60844804800001,9.98319863100005],[125.60645584600002,9.993678265000028],[125.58109127900002,9.987082600000065],[125.57679022100001,9.976070631000027],[125.57207917000005,9.987849120000021],[125.55959082200002,9.990942697000037],[125.580817335,9.99855489600003],[125.56965789900005,10.00614147300007],[125.56858947400008,10.018318585000031],[125.5742733300001,10.02921965400003],[125.58941729300011,10.02764658700005],[125.57557486900009,10.043552069000043],[125.58403339300003,10.05059020300007],[125.60073230000012,10.035524704000068],[125.60428558700005,10.043782928000041],[125.5905759850001,10.05167198600003],[125.5998929750001,10.059146339000051],[125.59717152200005,10.065142856000023],[125.59013242200001,10.060937745000047],[125.58302504000005,10.08555696600007],[125.57025759400005,10.089985642000045],[125.56524339000009,10.084367745000065],[125.57600999700003,10.078349652000043],[125.57695621000005,10.06490090400007],[125.54834487900007,10.084534156000075],[125.52610749500002,10.061336080000046],[125.50842392000004,10.063061253000058],[125.50482517700004,10.077437749000069],[125.5043928450001,10.068063206000033],[125.50250433800011,10.068421367000042],[125.5028884940001,10.07006754400004],[125.49715033000007,10.07884327100004],[125.5046554060001,10.078784398000039],[125.50603962000002,10.084919729000035],[125.49770818400009,10.083216223000022],[125.49999811500004,10.095858302000067],[125.49528461200009,10.104176541000072],[125.49005342300006,10.095043230000044],[125.48112055900003,10.103987231000076],[125.47345514400001,10.135014726000065],[125.47765340900003,10.139953625000032],[125.48114107200001,10.118876555000043],[125.48885662300006,10.117399541000054],[125.49338285600004,10.127308934000041],[125.48658817500007,10.123001096000053],[125.48474930500004,10.132520698000064],[125.50177744300004,10.134204083000043],[125.48800273800009,10.142832952000049],[125.49029526100003,10.144069395000031],[125.48985824700003,10.149218675000043],[125.4940467450001,10.142621967000025],[125.49650006000002,10.144394547000047]]],[[[125.49886786400009,10.423929420000036],[125.4769906680001,10.427434945000073],[125.47913803900008,10.435560447000057],[125.46570253700008,10.460602945000062],[125.5016336000001,10.445635899000024],[125.49329087900003,10.43271111200005],[125.49886786400009,10.423929420000036]]],[[[125.465227292,10.42953552800003],[125.4710508170001,10.439972151000063],[125.4729596730001,10.44082211500006],[125.47223638300011,10.428999339000029],[125.465227292,10.42953552800003]]],[[[125.47543559200005,10.43649675100005],[125.4762905550001,10.437259783000059],[125.47615107900003,10.436704605000045],[125.47543559200005,10.43649675100005]]],[[[125.5675201040001,10.427887019000025],[125.56673511200006,10.429409916000054],[125.56765810900004,10.428996940000047],[125.5675201040001,10.427887019000025]]],[[[125.56812308000008,10.422684384000036],[125.56752807700002,10.42175145300007],[125.56742908100011,10.422803379000072],[125.56812308000008,10.422684384000036]]],[[[125.58950636800012,10.382202891000077],[125.594935641,10.378420617000074],[125.5935222390001,10.369725148000043],[125.58761276200005,10.374950260000048],[125.58950636800012,10.382202891000077]]],[[[125.49736662500004,10.202948211000034],[125.49634810500004,10.202355750000038],[125.49673314800009,10.203409588000056],[125.49736662500004,10.202948211000034]]],[[[125.49762037200003,10.20284373100003],[125.49739902600004,10.202824235000037],[125.49740982100002,10.202866742000026],[125.49762037200003,10.20284373100003]]],[[[125.49770497400004,10.20247002900004],[125.4985831670001,10.202399233000051],[125.49831326100002,10.201899764000075],[125.49770497400004,10.20247002900004]]],[[[125.49765100900004,10.202083923000032],[125.49791374600011,10.202062684000055],[125.49778778100006,10.201998917000026],[125.49765100900004,10.202083923000032]]],[[[125.50001594900004,10.20133600500003],[125.49840016400003,10.201805342000057],[125.5003129270001,10.202122645000031],[125.50001594900004,10.20133600500003]]],[[[125.4973954940001,10.201687178000043],[125.49663610300001,10.201251439000032],[125.49707875500008,10.201919176000047],[125.4973954940001,10.201687178000043]]],[[[125.49833906800006,10.200247815000068],[125.49755354900003,10.200547554000025],[125.49841395700003,10.200427987000069],[125.49833906800006,10.200247815000068]]],[[[125.49673641200002,10.20031496100006],[125.49680298600003,10.199799016000043],[125.49662490900005,10.200311685000031],[125.49673641200002,10.20031496100006]]],[[[125.49717411000006,10.199751518000028],[125.49787974300011,10.199599195000076],[125.49767171500002,10.199345316000063],[125.49717411000006,10.199751518000028]]],[[[125.50056083700008,10.18123730000002],[125.50233119600011,10.18186145900006],[125.50354094600004,10.181821181000032],[125.50056083700008,10.18123730000002]]],[[[125.49692493500004,10.178485246000037],[125.49690443200006,10.177809983000031],[125.49665585600007,10.178380102000062],[125.49692493500004,10.178485246000037]]],[[[125.50137972800007,10.177652353000042],[125.50287782800001,10.177545878000046],[125.5017390270001,10.176709876000075],[125.50137972800007,10.177652353000042]]],[[[125.50467010700004,10.175140991000035],[125.50560361300006,10.175489692000042],[125.50589857900002,10.174959950000073],[125.50467010700004,10.175140991000035]]],[[[125.49604000400006,10.173249677000058],[125.49742052700003,10.17432173800006],[125.49726885100006,10.172417025000072],[125.49604000400006,10.173249677000058]]],[[[125.46669940000004,10.172838161000072],[125.46046076400012,10.169401339000046],[125.462949062,10.174889847000031],[125.46669940000004,10.172838161000072]]],[[[125.49045260600008,10.171328318000064],[125.49303593500008,10.171312732000047],[125.49262689000011,10.168286678000072],[125.49045260600008,10.171328318000064]]],[[[125.48971064500006,10.171841554000025],[125.49008624200007,10.17142769700007],[125.48962561200005,10.17156254300005],[125.48971064500006,10.171841554000025]]],[[[125.48971844800008,10.17064724000005],[125.49014628300006,10.170661345000042],[125.49010332500006,10.170412905000035],[125.48971844800008,10.17064724000005]]],[[[125.48317735300009,10.149455727000031],[125.48076166400006,10.154099822000035],[125.48801197400007,10.153040420000025],[125.48317735300009,10.149455727000031]]],[[[125.49029945000007,10.151289572000053],[125.4905844220001,10.151962226000023],[125.49081924400002,10.151522448000037],[125.49029945000007,10.151289572000053]]],[[[125.4867127650001,10.150800744000037],[125.48702506400002,10.151096610000025],[125.48712528400006,10.150879389000067],[125.4867127650001,10.150800744000037]]],[[[125.49132533600005,10.150087919000043],[125.49165803900007,10.150200290000043],[125.49148697200008,10.149985021000077],[125.49132533600005,10.150087919000043]]],[[[125.4893022550001,10.150144944000033],[125.48963202000004,10.150064969000027],[125.48931417000006,10.149795617000052],[125.4893022550001,10.150144944000033]]],[[[125.48966031100008,10.149273161000053],[125.48976223200009,10.149712758000021],[125.48995452100007,10.149459540000066],[125.48966031100008,10.149273161000053]]],[[[125.49381425700005,10.148558082000022],[125.49371457600012,10.149192563000042],[125.4944430380001,10.148597102000053],[125.49381425700005,10.148558082000022]]],[[[125.48294039500001,10.142799461000038],[125.47929279700008,10.143666489000054],[125.48135531500009,10.145936655000071],[125.48294039500001,10.142799461000038]]],[[[125.49432574100001,10.144827381000027],[125.49359206600002,10.14532050400004],[125.49393314100007,10.145820168000057],[125.49432574100001,10.144827381000027]]],[[[125.48470314000008,10.143454258000077],[125.48723192900002,10.14424535300003],[125.48471116200005,10.142464334000067],[125.48470314000008,10.143454258000077]]],[[[125.48787963000007,10.144794022000042],[125.48746106200008,10.144868021000036],[125.48780958700002,10.14511523300007],[125.48787963000007,10.144794022000042]]],[[[125.48784203800005,10.143909430000065],[125.4875396440001,10.143870752000055],[125.48754989400004,10.143988474000025],[125.48784203800005,10.143909430000065]]],[[[125.48774294300006,10.143177878000074],[125.48800262700001,10.14357476500004],[125.48811708800008,10.143041655000047],[125.48774294300006,10.143177878000074]]],[[[125.48877629300011,10.141387269000063],[125.48828733700009,10.141224738000062],[125.48830818600004,10.141616100000022],[125.48877629300011,10.141387269000063]]],[[[125.48879711200004,10.140487766000035],[125.48899270000004,10.140822313000058],[125.48908566800003,10.14036624800002],[125.48879711200004,10.140487766000035]]],[[[125.48930849300007,10.14001117500004],[125.48913696400007,10.140096396000047],[125.48922353400008,10.140235263000022],[125.48930849300007,10.14001117500004]]],[[[125.47472726700005,10.105595337000068],[125.48190055900011,10.095601973000043],[125.47947677800005,10.097940797000035],[125.47472726700005,10.105595337000068]]],[[[125.49761335700009,10.095659065000063],[125.49725047400011,10.095682961000023],[125.49756836400002,10.096458297000027],[125.49761335700009,10.095659065000063]]],[[[125.49886524100009,10.093747141000051],[125.49821605400007,10.094708360000027],[125.49891752300005,10.09451139500004],[125.49886524100009,10.093747141000051]]],[[[125.48470733200008,10.094003973000042],[125.48579881500007,10.09111492900007],[125.48299377100011,10.09325973600005],[125.48470733200008,10.094003973000042]]],[[[125.48384741300003,10.085974080000028],[125.4767346320001,10.08240028800003],[125.4782592460001,10.090945818000023],[125.48384741300003,10.085974080000028]]],[[[125.49177388500004,10.088402704000032],[125.49136037000005,10.088512189000028],[125.49144006200004,10.088642999000058],[125.49177388500004,10.088402704000032]]],[[[125.48453414700009,10.087277320000055],[125.48517423400006,10.087587504000055],[125.48513824200006,10.086933518000023],[125.48453414700009,10.087277320000055]]],[[[125.4914524290001,10.08650448700007],[125.49185432700006,10.08654378600005],[125.49167002600007,10.086241268000038],[125.4914524290001,10.08650448700007]]],[[[125.49009204300012,10.083266335000076],[125.49177780200012,10.085570517000065],[125.49060539300001,10.082033961000036],[125.49009204300012,10.083266335000076]]],[[[125.50380944500012,10.08189873300006],[125.50136662300008,10.083589477000032],[125.505376479,10.084503372000029],[125.50380944500012,10.08189873300006]]],[[[125.47238431100004,10.081746499000076],[125.47153312000012,10.079261710000026],[125.47097516800011,10.081980422000072],[125.47238431100004,10.081746499000076]]],[[[125.48729121800011,10.081111829000065],[125.4877573120001,10.081250965000038],[125.48781390900001,10.080615905000059],[125.48729121800011,10.081111829000065]]],[[[125.48750036100012,10.080012441000065],[125.48786055300002,10.079922102000069],[125.4876887900001,10.079370446000041],[125.48750036100012,10.080012441000065]]],[[[125.4744180670001,10.078478587000063],[125.47445770800005,10.077851407000026],[125.47407033500008,10.078378917000066],[125.4744180670001,10.078478587000063]]],[[[125.58304684600012,10.075348414000075],[125.58136247000004,10.07364672500006],[125.58096320600009,10.076188219000073],[125.58304684600012,10.075348414000075]]],[[[125.50117012700002,10.070519425000043],[125.50169972800006,10.07005698100005],[125.50159470300002,10.069983716000024],[125.50117012700002,10.070519425000043]]],[[[125.50453962800009,10.06639883400004],[125.50390652200008,10.066283526000063],[125.50373718900005,10.067342091000057],[125.50453962800009,10.06639883400004]]],[[[125.58298879200004,10.061071072000061],[125.57952766000005,10.055977777000066],[125.57831717900001,10.059610603000067],[125.58298879200004,10.061071072000061]]],[[[125.51300382300008,10.004377549000026],[125.51332314600006,10.030374675000076],[125.53850904100011,10.010683172000029],[125.51300382300008,10.004377549000026]]],[[[125.51122816800012,9.997984361000022],[125.50313960000005,9.981244480000043],[125.49911733700003,9.986627829000042],[125.50392653200004,9.998709959000053],[125.49721059100011,10.018248220000032],[125.51122816800012,9.997984361000022]]],[[[125.56811148500003,9.999960445000056],[125.56876965300012,10.000849666000022],[125.569782099,10.000161496000032],[125.56811148500003,9.999960445000056]]],[[[125.51465952800004,10.000553460000049],[125.51531165100005,9.99954402800006],[125.51508600000011,9.998885960000052],[125.51465952800004,10.000553460000049]]],[[[125.52374153400001,9.99545975600006],[125.52495647400008,9.997520168000051],[125.5249369170001,9.993641258000025],[125.52374153400001,9.99545975600006]]],[[[125.55707539200012,9.961188203000063],[125.55638880600009,9.969866833000026],[125.53827925600001,9.97813005200004],[125.53557296600002,9.990838772000075],[125.55972449600006,9.970859225000027],[125.55707539200012,9.961188203000063]]],[[[125.523695728,9.972307897000064],[125.51833508100003,9.975000290000025],[125.52043398300009,9.985690957000031],[125.52429784700007,9.981640732000074],[125.523695728,9.972307897000064]]],[[[125.57526263000011,9.974649630000044],[125.57543637700007,9.97532119400006],[125.57574125200006,9.97501124200005],[125.57526263000011,9.974649630000044]]],[[[125.55005532700011,9.947008525000058],[125.5432917390001,9.945587406000072],[125.54209445900005,9.94950295600006],[125.55005532700011,9.947008525000058]]],[[[125.5511343930001,9.946120807000057],[125.55421995000006,9.945743956000058],[125.55384563600012,9.943946864000054],[125.5511343930001,9.946120807000057]]],[[[125.63157587300009,9.940283384000054],[125.6310655320001,9.939892420000035],[125.63077286700002,9.940348254000071],[125.63157587300009,9.940283384000054]]],[[[125.63093017200003,9.93990503300006],[125.63068140400003,9.939859992000038],[125.63080030200001,9.939883413000075],[125.63073445300006,9.94012304100005],[125.63093017200003,9.93990503300006]]],[[[125.6889246830001,9.936156480000022],[125.6865391880001,9.936766042000045],[125.68898756800002,9.939622542000052],[125.6889246830001,9.936156480000022]]],[[[125.63491465000004,9.927795694000054],[125.62522443700004,9.934505989000058],[125.63069917100006,9.937938252000038],[125.63491465000004,9.927795694000054]]],[[[125.68199396200009,9.931790228000068],[125.67718447000004,9.930666712000061],[125.68052299700003,9.933798196000055],[125.68199396200009,9.931790228000068]]],[[[125.63872404900007,9.922357542000043],[125.64436565200003,9.92543459500007],[125.64280163600006,9.919353536000074],[125.63872404900007,9.922357542000043]]]]}}]}