{
  "type": "FeatureCollection",
  "features": [
    {
      "type": "Feature",
      "properties": {
        "name": "Agusan del Norte",
        "code": "PH1301000000",
        "capital": "Cabadbaran City",
        "region": "XIII"
      },
      "geometry": {
        "type": "Polygon",
        "coordinates": [
          [
            [125.5, 9.2],
            [125.8, 9.2],
            [126.0, 9.0],
            [126.2, 8.8],
            [126.0, 8.5],
            [125.8, 8.3],
            [125.5, 8.3],
            [125.2, 8.5],
            [125.0, 8.8],
            [125.2, 9.0],
            [125.5, 9.2]
          ]
        ]
      }
    },
    {
      "type": "Feature",
      "properties": {
        "name": "Agusan del Sur",
        "code": "PH1302000000",
        "capital": "Prosperidad",
        "region": "XIII"
      },
      "geometry": {
        "type": "Polygon",
        "coordinates": [
          [
            [125.5, 8.3],
            [125.8, 8.3],
            [126.0, 8.5],
            [126.2, 8.3],
            [126.5, 8.0],
            [126.5, 7.5],
            [126.2, 7.2],
            [125.8, 7.2],
            [125.5, 7.5],
            [125.2, 7.8],
            [125.2, 8.0],
            [125.5, 8.3]
          ]
        ]
      }
    },
    {
      "type": "Feature",
      "properties": {
        "name": "Dinagat Islands",
        "code": "PH1303000000",
        "capital": "San Jose",
        "region": "XIII"
      },
      "geometry": {
        "type": "Polygon",
        "coordinates": [
          [
            [125.5, 10.0],
            [125.7, 10.1],
            [125.9, 10.0],
            [126.0, 9.8],
            [125.9, 9.6],
            [125.7, 9.5],
            [125.5, 9.6],
            [125.4, 9.8],
            [125.5, 10.0]
          ]
        ]
      }
    },
    {
      "type": "Feature",
      "properties": {
        "name": "Surigao del Norte",
        "code": "PH1304000000",
        "capital": "Surigao City",
        "region": "XIII"
      },
      "geometry": {
        "type": "Polygon",
        "coordinates": [
          [
            [125.5, 9.8],
            [125.7, 9.5],
            [125.9, 9.6],
            [126.0, 9.8],
            [126.2, 10.0],
            [126.5, 10.0],
            [126.7, 9.8],
            [126.5, 9.5],
            [126.2, 9.2],
            [126.0, 9.0],
            [125.8, 9.2],
            [125.5, 9.2],
            [125.3, 9.5],
            [125.5, 9.8]
          ]
        ]
      }
    },
    {
      "type": "Feature",
      "properties": {
        "name": "Surigao del Sur",
        "code": "PH1305000000",
        "capital": "Tandag",
        "region": "XIII"
      },
      "geometry": {
        "type": "Polygon",
        "coordinates": [
          [
            [126.0, 8.8],
            [126.2, 9.2],
            [126.5, 9.5],
            [126.7, 9.8],
            [127.0, 9.5],
            [127.0, 9.0],
            [126.8, 8.5],
            [126.5, 8.0],
            [126.2, 8.0],
            [126.0, 8.3],
            [125.8, 8.5],
            [126.0, 8.8]
          ]
        ]
      }
    }
  ]
}
